#aV2020  9 11  0  0  0.00000000     288 DD+AD WGS84 FIT  NGA
## 2122 432000.00000000   300.00000000 59103 0.0000000000000
+   31     1  2  3  4  5  6  7  8  9 10 11 12 13 15 16 17 18
+         19 20 21 22 23 24 25 26 27 28 29 30 31 32  0  0  0
+          0  0  0  0  0  0  0  0  0  0  0  0  0  0  0  0  0
+          0  0  0  0  0  0  0  0  0  0  0  0  0  0  0  0  0
+          0  0  0  0  0  0  0  0  0  0  0  0  0  0  0  0  0
++         2  2  2  2  2  2  2  2  2  2  2  2  2  2  2  2  2
++         2  2  2  2  2  2  2  2  2  2  2  2  2  2  0  0  0
++         0  0  0  0  0  0  0  0  0  0  0  0  0  0  0  0  0
++         0  0  0  0  0  0  0  0  0  0  0  0  0  0  0  0  0
++         0  0  0  0  0  0  0  0  0  0  0  0  0  0  0  0  0
%c cc cc ccc ccc cccc cccc cccc cccc ccccc ccccc ccccc ccccc
%c cc cc ccc ccc cccc cccc cccc cccc ccccc ccccc ccccc ccccc
%f  0.0000000  0.000000000  0.00000000000  0.000000000000000
%f  0.0000000  0.000000000  0.00000000000  0.000000000000000
%i    0    0    0    0      0      0      0      0         0
%i    0    0    0    0      0      0      0      0         0
/*      NGA, ST. LOUIS,MO.                                  
/*   EPHEMERIS COMPUTED FROM 2 DAYS OF DATA                 
/*   EPOCHA v5 SMOOTHER                                     
/*   G1762 IERS2010 SATAF SATAPC                            
*  2020  9 11 17 45  0.00000000
P  1  -4222.538094  16692.543885 -20363.899549     36.079431                    
V  1 -23653.239749   9228.146392  12935.282994     -0.000840                    
P  2  21152.801442 -15370.890923   5197.650460   -515.051100                    
V  2   6394.200732   -330.730019 -30855.072048     -0.052290                    
P  3   6745.285274  19407.910124 -16967.476920   -296.249937                    
V  3 -18176.405259 -11287.820504 -20131.741193     -0.107145                    
P  4    -46.136637  26053.580390   5066.374863   -134.810927                    
V  4  -3644.902435   5985.889582 -30899.162618     -0.041816                    
P  5  13529.879800  -8804.912950  20971.247780    -20.868261                    
V  5  21949.766082  15685.452590  -7332.839849     -0.008766                    
P  6  24712.659042  -4770.875707  -8490.681516   -324.738875                    
V  6  -9073.470295   6224.435943 -29688.260995     -0.034199                    
P  7  14001.045922   9979.269769  20684.562020   -370.318808                    
V  7 -23078.389221  10747.482980  10118.579639     -0.082237                    
P  8  -6322.913003  24963.652733   5924.042979    -47.609247                    
V  8  -1980.779776  -7763.600990  30914.701098     -0.013420                    
P  9   8905.700009  19976.426914  15002.445571   -284.510910                    
V  9  -3935.663824  18898.136527 -22757.393978     -0.056932                    
P 10 -23331.204462 -10533.613118  -7465.880246   -451.985900                    
V 10  -6369.509790  -7447.646203  29814.835403     -0.099138                    
P 11  -9080.735690  23338.185098  -9831.239243   -167.150983                    
V 11 -10076.283408   7033.918089  26986.377227      0.105864                    
P 12  -4074.503425 -19355.321726 -18031.047941     68.553467                    
V 12  17846.335779  13477.385305 -18598.355621     -0.050189                    
P 13  13153.501319 -19558.957408  12010.175811     44.332032                    
V 13  -1377.841389  15578.554959  26707.610032      0.035568                    
P 15   3422.542382 -25652.962929   4674.224733   -204.363916                    
V 15   4116.700467   6429.295583  30498.331719      0.025969                    
P 16 -12319.783683   8675.287113  21691.155758   -207.773568                    
V 16 -20969.130909 -18517.346735  -4024.591178     -0.050625                    
P 17  14195.199251   3083.907391 -21811.772828    324.456501                    
V 17  -4718.348544  28274.292272    868.234209      0.055041                    
P 18 -14309.953979  -9311.167467  20345.169666    288.291803                    
V 18  23483.820518 -10818.584240  11515.111237      0.071278                    
P 19  15541.088598  -4805.803561 -21275.636569   -106.231809                    
V 19  -4858.627779  25845.155939  -9581.223668      0.050632                    
P 20 -21302.647739 -15357.803425   4692.227606    526.768648                    
V 20   6900.967677    -95.452870  30261.558327     -0.001258                    
P 21 -22979.654096  12887.439523   -889.696356     46.009673                    
V 21  -3347.968906  -1986.202868  31788.021996      0.042090                    
P 22   -724.679592  17049.670134 -20187.805131   -755.458683                    
V 22 -23005.489219 -12486.130110  -9475.309750      0.038871                    
P 23 -20989.018013 -16165.040282   1956.998648     63.964629                    
V 23   3656.480514   -854.222723  31633.309807      0.088218                    
P 24   6319.832319 -18384.787946 -18137.953766    -18.435526                    
V 24  21205.361207  -8735.676726  16808.894256     -0.004084                    
P 25 -15131.249499 -19669.183760 -10060.252235     47.697206                    
V 25  11243.696374   5526.584664 -28132.862087      0.053453                    
P 26 -21487.956808   -785.882743  15708.183302    277.105470                    
V 26 -15362.382810 -12913.419036 -21385.054683      0.064489                    
P 27 -12206.420697  17649.364637  15279.638999   -393.215737                    
V 27    183.958260 -19853.939394  23187.908105     -0.089965                    
P 28  21962.038687  11570.006195  -8644.328652    679.853739                    
V 28   7280.784221   9619.769995  29558.790866     -0.041459                    
P 29  -4726.228218 -22632.151494  12991.551129   -192.589112                    
V 29   4550.723885 -15988.794622 -26159.334177     -0.081496                    
P 30  21943.823535   2862.165355  14893.919339   -299.851547                    
V 30 -16506.557543   9311.081522  22390.638391     -0.071714                    
P 31 -25419.521339   5579.424546  -6458.198101    -68.057353                    
V 31   6501.591681  -5314.416520 -29960.582285     -0.024095                    
P 32 -15154.624781  -1721.136914 -21660.315929    344.988607                    
V 32   2675.878512 -27588.644576    168.804509      0.048023                    
EOF
